{
    "links": {
        "self": "http://www.neowsapp.com/rest/v1/neo/54017529?api_key=iIulBulltgU6a56xZRHN4H3l9WmuAYTsLGpBGhQ2"
    },
    "id": "54017529",
    "neo_reference_id": "54017529",
    "name": "(2020 MO)",
    "designation": "2020 MO",
    "nasa_jpl_url": "http://ssd.jpl.nasa.gov/sbdb.cgi?sstr=54017529",
    "absolute_magnitude_h": 24.714,
    "estimated_diameter": {
        "kilometers": {
            "estimated_diameter_min": 0.0303217998,
            "estimated_diameter_max": 0.0678016057
        },
        "meters": {
            "estimated_diameter_min": 30.3217998435,
            "estimated_diameter_max": 67.8016056501
        },
        "miles": {
            "estimated_diameter_min": 0.0188410871,
            "estimated_diameter_max": 0.0421299515
        },
        "feet": {
            "estimated_diameter_min": 99.4809737984,
            "estimated_diameter_max": 222.4462198812
        }
    },
    "is_potentially_hazardous_asteroid": false,
    "close_approach_data": [
        {
            "close_approach_date": "2014-10-15",
            "close_approach_date_full": "2014-Oct-15 20:55",
            "epoch_date_close_approach": 1413406500000,
            "relative_velocity": {
                "kilometers_per_second": "3.6001610303",
                "kilometers_per_hour": "12960.5797089576",
                "miles_per_hour": "8053.200208602"
            },
            "miss_distance": {
                "astronomical": "1.5843178243",
                "lunar": "616.2996336527",
                "kilometers": "237010571.918314241",
                "miles": "147271540.3179728858"
            },
            "orbiting_body": "Juptr"
        },
        {
            "close_approach_date": "2020-07-03",
            "close_approach_date_full": "2020-Jul-03 12:05",
            "epoch_date_close_approach": 1593777900000,
            "relative_velocity": {
                "kilometers_per_second": "9.5683769606",
                "kilometers_per_hour": "34446.1570581786",
                "miles_per_hour": "21403.5024231777"
            },
            "miss_distance": {
                "astronomical": "0.0238930281",
                "lunar": "9.2943879309",
                "kilometers": "3574346.111610147",
                "miles": "2220995.6848161486"
            },
            "orbiting_body": "Earth"
        },
        {
            "close_approach_date": "2026-02-12",
            "close_approach_date_full": "2026-Feb-12 03:37",
            "epoch_date_close_approach": 1770867420000,
            "relative_velocity": {
                "kilometers_per_second": "3.4629096813",
                "kilometers_per_hour": "12466.4748527889",
                "miles_per_hour": "7746.1826661677"
            },
            "miss_distance": {
                "astronomical": "1.5010515654",
                "lunar": "583.9090589406",
                "kilometers": "224554116.944005698",
                "miles": "139531458.1093187124"
            },
            "orbiting_body": "Juptr"
        },
        {
            "close_approach_date": "2148-06-03",
            "close_approach_date_full": "2148-Jun-03 16:09",
            "epoch_date_close_approach": 5630486940000,
            "relative_velocity": {
                "kilometers_per_second": "17.6005603093",
                "kilometers_per_hour": "63362.0171136416",
                "miles_per_hour": "39370.6933559736"
            },
            "miss_distance": {
                "astronomical": "0.2503114525",
                "lunar": "97.3711550225",
                "kilometers": "37446060.130606175",
                "miles": "23267902.818168215"
            },
            "orbiting_body": "Earth"
        }
    ],
    "orbital_data": {
        "orbit_id": "1",
        "orbit_determination_date": "2020-06-19 16:42:04",
        "first_observation_date": "2020-05-26",
        "last_observation_date": "2020-06-19",
        "data_arc_in_days": 24,
        "observations_used": 37,
        "orbit_uncertainty": "7",
        "minimum_orbit_intersection": ".0239905",
        "jupiter_tisserand_invariant": "3.242",
        "epoch_osculation": "2459000.5",
        "eccentricity": ".5853010131767017",
        "semi_major_axis": "2.4290297886811",
        "inclination": "6.836346326581178",
        "ascending_node_longitude": "93.71928216432326",
        "orbital_period": "1382.762802565508",
        "perihelion_distance": "1.007316192329663",
        "perihelion_argument": "209.3432671446837",
        "aphelion_distance": "3.850743385032538",
        "perihelion_time": "2459051.563172315049",
        "mean_anomaly": "346.7057878623063",
        "mean_motion": ".2603483398107573",
        "equinox": "J2000",
        "orbit_class": {
            "orbit_class_type": "APO",
            "orbit_class_description": "Near-Earth asteroid orbits which cross the Earth’s orbit similar to that of 1862 Apollo",
            "orbit_class_range": "a (semi-major axis) > 1.0 AU; q (perihelion) < 1.017 AU"
        }
    },
    "is_sentry_object": false
}